[{"OBJECT_NAME":"GEOSCAN 1 (RS92S1)","OBJECT_ID":"2025-155E","EPOCH":"2026-03-09T22:44:05.846496","MEAN_MOTION":15.28410635,"ECCENTRICITY":0.00087099,"INCLINATION":97.4463,"RA_OF_ASC_NODE":37.403,"ARG_OF_PERICENTER":153.6429,"MEAN_ANOMALY":206.5255,"EPHEMERIS_TYPE":0,"CLASSIFICATION_TYPE":"U","NORAD_CAT_ID":64880,"ELEMENT_SET_NO":999,"REV_AT_EPOCH":6560,"BSTAR":0.00054367431,"MEAN_MOTION_DOT":0.00014993,"MEAN_MOTION_DDOT":0},{"OBJECT_NAME":"STARLINK-36410","OBJECT_ID":"2026-003D","EPOCH":"2026-03-09T10:56:13.321536","MEAN_MOTION":15.27594916,"ECCENTRICITY":9.594e-5,"INCLINATION":42.9974,"RA_OF_ASC_NODE":228.7734,"ARG_OF_PERICENTER":278.7996,"MEAN_ANOMALY":81.2747,"EPHEMERIS_TYPE":0,"CLASSIFICATION_TYPE":"U","NORAD_CAT_ID":67337,"ELEMENT_SET_NO":999,"REV_AT_EPOCH":878,"BSTAR":0.0013428845,"MEAN_MOTION_DOT":0.00036893,"MEAN_MOTION_DDOT":0}]
